[{"OBJECT_NAME":"FLOCK 4G-25","OBJECT_ID":"2025-009AP","EPOCH":"2026-03-09T17:53:50.680608","MEAN_MOTION":15.27424196,"ECCENTRICITY":8.276e-5,"INCLINATION":97.4049,"RA_OF_ASC_NODE":151.4141,"ARG_OF_PERICENTER":316.3151,"MEAN_ANOMALY":43.8023,"EPHEMERIS_TYPE":0,"CLASSIFICATION_TYPE":"U","NORAD_CAT_ID":62646,"ELEMENT_SET_NO":999,"REV_AT_EPOCH":6373,"BSTAR":0.00038902475,"MEAN_MOTION_DOT":0.00010373,"MEAN_MOTION_DDOT":0},{"OBJECT_NAME":"STARLINK-36493","OBJECT_ID":"2026-008M","EPOCH":"2026-03-09T10:13:50.995488","MEAN_MOTION":15.27594532,"ECCENTRICITY":0.00022072,"INCLINATION":43.0004,"RA_OF_ASC_NODE":206.5646,"ARG_OF_PERICENTER":280.1015,"MEAN_ANOMALY":79.9588,"EPHEMERIS_TYPE":0,"CLASSIFICATION_TYPE":"U","NORAD_CAT_ID":67456,"ELEMENT_SET_NO":999,"REV_AT_EPOCH":953,"BSTAR":0.0012998221,"MEAN_MOTION_DOT":0.00035696,"MEAN_MOTION_DDOT":0}]
