FLOCK 4G-25             
1 62646U 25009AP  26068.74572546  .00010373  00000+0  38902-3 0  9990
2 62646  97.4049 151.4141 0000828 316.3151  43.8023 15.27424196 63734
STARLINK-36493          
1 67456U 26008M   26068.42628467  .00035696  00000+0  12998-2 0  9994
2 67456  43.0004 206.5646 0002207 280.1015  79.9588 15.27594532  9534
